ATLAS CENTAUR R/B       
1 06155U 72065B   25332.94081817  .00001173  00000+0  16394-3 0  9997
2 06155  34.9998 176.0269 0034493 243.4909 116.2252 14.77351227826358
SL-8 R/B                
1 08459U 75112B   25333.05721825  .00000285  00000+0  10244-3 0  9996
2 08459  74.0597 204.0244 0016304 317.0385  42.9495 14.38131773617406
SL-3 R/B                
1 10114U 77057B   25333.19960649  .00013759  00000+0  31942-3 0  9999
2 10114  97.5683 136.0053 0006504 289.8703  70.1843 15.42475826652827
SEASAT 1                
1 10967U 78064A   25332.63924797  .00000434  00000+0  16005-3 0  9995
2 10967 108.0093 273.4538 0001977 251.1297 108.9635 14.46035954491905
SL-14 R/B               
1 11267U 79011B   25333.10440429  .00000649  00000+0  61724-4 0  9997
2 11267  82.5245 191.9752 0017063  37.8177 322.4237 14.91744825513781
SL-8 R/B                
1 11574U 79089B   25333.10241564  .00000317  00000+0  10385-3 0  9990
2 11574  74.0688 277.2184 0014542 117.3842 242.8796 14.42268452421605
SL-14 R/B               
1 11672U 80005B   25333.18565530  .00000722  00000+0  70725-4 0  9994
2 11672  82.5160  42.5527 0016893 135.0136 225.2455 14.90765842461510
SL-8 R/B                
1 12139U 81003B   25333.18938402  .00022650  00000+0  60775-3 0  9991
2 12139  82.9304  22.6706 0281454 167.0538 193.8122 15.06392436299523
SL-3 R/B                
1 12465U 81046B   25333.17416135  .00012419  00000+0  31661-3 0  9997
2 12465  81.2338  50.1591 0019873  11.7486 348.4214 15.39193129422952
SL-3 R/B                
1 12904U 81103B   25333.16581664  .00007195  00000+0  33261-3 0  9991
2 12904  81.1588 331.2499 0011191 266.5305  93.4646 15.19981019957951
SL-3 R/B                
1 13068U 82013B   25333.15700477  .00004864  00000+0  21733-3 0  9999
2 13068  81.1739 278.5059 0023314 154.5129 205.7258 15.20895350389068
SL-3 R/B                
1 13154U 82039B   25333.11630267  .00003205  00000+0  19702-3 0  9999
2 13154  81.1746 331.7675 0030729 298.1514  61.6606 15.09400223366462
