CCSDS_OMM_VERS = 2.0
CREATION_DATE  = 
ORIGINATOR     = 

OBJECT_NAME    = ATLAS CENTAUR R/B
OBJECT_ID      = 1972-065B
CENTER_NAME    = EARTH
REF_FRAME      = TEME
TIME_SYSTEM    = UTC
MEAN_ELEMENT_THEORY = SGP/SGP4

EPOCH          = 2025-11-28T22:34:46.689888
MEAN_MOTION    = 14.77351227
ECCENTRICITY   = .0034493
INCLINATION    = 34.9998
RA_OF_ASC_NODE = 176.0269
ARG_OF_PERICENTER = 243.4909
MEAN_ANOMALY   = 116.2252

EPHEMERIS_TYPE = 0
CLASSIFICATION_TYPE = U
NORAD_CAT_ID   = 6155
ELEMENT_SET_NO = 999
REV_AT_EPOCH   = 82635
BSTAR          = .16394E-3
MEAN_MOTION_DOT = .1173E-4
MEAN_MOTION_DDOT = 0

CCSDS_OMM_VERS = 2.0
CREATION_DATE  = 
ORIGINATOR     = 

OBJECT_NAME    = SL-8 R/B
OBJECT_ID      = 1975-112B
CENTER_NAME    = EARTH
REF_FRAME      = TEME
TIME_SYSTEM    = UTC
MEAN_ELEMENT_THEORY = SGP/SGP4

EPOCH          = 2025-11-29T01:22:23.656800
MEAN_MOTION    = 14.38131773
ECCENTRICITY   = .0016304
INCLINATION    = 74.0597
RA_OF_ASC_NODE = 204.0244
ARG_OF_PERICENTER = 317.0385
MEAN_ANOMALY   = 42.9495

EPHEMERIS_TYPE = 0
CLASSIFICATION_TYPE = U
NORAD_CAT_ID   = 8459
ELEMENT_SET_NO = 999
REV_AT_EPOCH   = 61740
BSTAR          = .10244E-3
MEAN_MOTION_DOT = .285E-5
MEAN_MOTION_DDOT = 0

CCSDS_OMM_VERS = 2.0
CREATION_DATE  = 
ORIGINATOR     = 

OBJECT_NAME    = SL-3 R/B
OBJECT_ID      = 1977-057B
CENTER_NAME    = EARTH
REF_FRAME      = TEME
TIME_SYSTEM    = UTC
MEAN_ELEMENT_THEORY = SGP/SGP4

EPOCH          = 2025-11-29T04:47:26.000736
MEAN_MOTION    = 15.42475826
ECCENTRICITY   = .0006504
INCLINATION    = 97.5683
RA_OF_ASC_NODE = 136.0053
ARG_OF_PERICENTER = 289.8703
MEAN_ANOMALY   = 70.1843

EPHEMERIS_TYPE = 0
CLASSIFICATION_TYPE = U
NORAD_CAT_ID   = 10114
ELEMENT_SET_NO = 999
REV_AT_EPOCH   = 65282
BSTAR          = .31942E-3
MEAN_MOTION_DOT = .13759E-3
MEAN_MOTION_DDOT = 0

CCSDS_OMM_VERS = 2.0
CREATION_DATE  = 
ORIGINATOR     = 

OBJECT_NAME    = SEASAT 1
OBJECT_ID      = 1978-064A
CENTER_NAME    = EARTH
REF_FRAME      = TEME
TIME_SYSTEM    = UTC
MEAN_ELEMENT_THEORY = SGP/SGP4

EPOCH          = 2025-11-28T15:20:31.024608
MEAN_MOTION    = 14.46035954
ECCENTRICITY   = .00019776
INCLINATION    = 108.0093
RA_OF_ASC_NODE = 273.4538
ARG_OF_PERICENTER = 251.1297
MEAN_ANOMALY   = 108.9635

EPHEMERIS_TYPE = 0
CLASSIFICATION_TYPE = U
NORAD_CAT_ID   = 10967
ELEMENT_SET_NO = 999
REV_AT_EPOCH   = 49190
BSTAR          = .16005302E-3
MEAN_MOTION_DOT = .434E-5
MEAN_MOTION_DDOT = 0

CCSDS_OMM_VERS = 2.0
CREATION_DATE  = 
ORIGINATOR     = 

OBJECT_NAME    = SL-14 R/B
OBJECT_ID      = 1979-011B
CENTER_NAME    = EARTH
REF_FRAME      = TEME
TIME_SYSTEM    = UTC
MEAN_ELEMENT_THEORY = SGP/SGP4

EPOCH          = 2025-11-29T02:30:20.530656
MEAN_MOTION    = 14.91744825
ECCENTRICITY   = .0017063
INCLINATION    = 82.5245
RA_OF_ASC_NODE = 191.9752
ARG_OF_PERICENTER = 37.8177
MEAN_ANOMALY   = 322.4237

EPHEMERIS_TYPE = 0
CLASSIFICATION_TYPE = U
NORAD_CAT_ID   = 11267
ELEMENT_SET_NO = 999
REV_AT_EPOCH   = 51378
BSTAR          = .61724E-4
MEAN_MOTION_DOT = .649E-5
MEAN_MOTION_DDOT = 0

CCSDS_OMM_VERS = 2.0
CREATION_DATE  = 
ORIGINATOR     = 

OBJECT_NAME    = SL-8 R/B
OBJECT_ID      = 1979-089B
CENTER_NAME    = EARTH
REF_FRAME      = TEME
TIME_SYSTEM    = UTC
MEAN_ELEMENT_THEORY = SGP/SGP4

EPOCH          = 2025-11-29T02:27:28.711296
MEAN_MOTION    = 14.42268452
ECCENTRICITY   = .0014542
INCLINATION    = 74.0688
RA_OF_ASC_NODE = 277.2184
ARG_OF_PERICENTER = 117.3842
MEAN_ANOMALY   = 242.8796

EPHEMERIS_TYPE = 0
CLASSIFICATION_TYPE = U
NORAD_CAT_ID   = 11574
ELEMENT_SET_NO = 999
REV_AT_EPOCH   = 42160
BSTAR          = .10385E-3
MEAN_MOTION_DOT = .317E-5
MEAN_MOTION_DDOT = 0

CCSDS_OMM_VERS = 2.0
CREATION_DATE  = 
ORIGINATOR     = 

OBJECT_NAME    = SL-14 R/B
OBJECT_ID      = 1980-005B
CENTER_NAME    = EARTH
REF_FRAME      = TEME
TIME_SYSTEM    = UTC
MEAN_ELEMENT_THEORY = SGP/SGP4

EPOCH          = 2025-11-29T04:27:20.617920
MEAN_MOTION    = 14.90765842
ECCENTRICITY   = .0016893
INCLINATION    = 82.5160
RA_OF_ASC_NODE = 42.5527
ARG_OF_PERICENTER = 135.0136
MEAN_ANOMALY   = 225.2455

EPHEMERIS_TYPE = 0
CLASSIFICATION_TYPE = U
NORAD_CAT_ID   = 11672
ELEMENT_SET_NO = 999
REV_AT_EPOCH   = 46151
BSTAR          = .70725E-4
MEAN_MOTION_DOT = .722E-5
MEAN_MOTION_DDOT = 0

CCSDS_OMM_VERS = 2.0
CREATION_DATE  = 
ORIGINATOR     = 

OBJECT_NAME    = SL-8 R/B
OBJECT_ID      = 1981-003B
CENTER_NAME    = EARTH
REF_FRAME      = TEME
TIME_SYSTEM    = UTC
MEAN_ELEMENT_THEORY = SGP/SGP4

EPOCH          = 2025-11-29T04:32:42.779328
MEAN_MOTION    = 15.06392436
ECCENTRICITY   = .0281454
INCLINATION    = 82.9304
RA_OF_ASC_NODE = 22.6706
ARG_OF_PERICENTER = 167.0538
MEAN_ANOMALY   = 193.8122

EPHEMERIS_TYPE = 0
CLASSIFICATION_TYPE = U
NORAD_CAT_ID   = 12139
ELEMENT_SET_NO = 999
REV_AT_EPOCH   = 29952
BSTAR          = .60775E-3
MEAN_MOTION_DOT = .2265E-3
MEAN_MOTION_DDOT = 0

CCSDS_OMM_VERS = 2.0
CREATION_DATE  = 
ORIGINATOR     = 

OBJECT_NAME    = SL-3 R/B
OBJECT_ID      = 1981-046B
CENTER_NAME    = EARTH
REF_FRAME      = TEME
TIME_SYSTEM    = UTC
MEAN_ELEMENT_THEORY = SGP/SGP4

EPOCH          = 2025-11-29T04:10:47.540640
MEAN_MOTION    = 15.39193129
ECCENTRICITY   = .0019873
INCLINATION    = 81.2338
RA_OF_ASC_NODE = 50.1591
ARG_OF_PERICENTER = 11.7486
MEAN_ANOMALY   = 348.4214

EPHEMERIS_TYPE = 0
CLASSIFICATION_TYPE = U
NORAD_CAT_ID   = 12465
ELEMENT_SET_NO = 999
REV_AT_EPOCH   = 42295
BSTAR          = .31661E-3
MEAN_MOTION_DOT = .12419E-3
MEAN_MOTION_DDOT = 0

CCSDS_OMM_VERS = 2.0
CREATION_DATE  = 
ORIGINATOR     = 

OBJECT_NAME    = SL-3 R/B
OBJECT_ID      = 1981-103B
CENTER_NAME    = EARTH
REF_FRAME      = TEME
TIME_SYSTEM    = UTC
MEAN_ELEMENT_THEORY = SGP/SGP4

EPOCH          = 2025-11-29T03:58:46.557696
MEAN_MOTION    = 15.19981019
ECCENTRICITY   = .0011191
INCLINATION    = 81.1588
RA_OF_ASC_NODE = 331.2499
ARG_OF_PERICENTER = 266.5305
MEAN_ANOMALY   = 93.4646

EPHEMERIS_TYPE = 0
CLASSIFICATION_TYPE = U
NORAD_CAT_ID   = 12904
ELEMENT_SET_NO = 999
REV_AT_EPOCH   = 95795
BSTAR          = .33261E-3
MEAN_MOTION_DOT = .7195E-4
MEAN_MOTION_DDOT = 0

CCSDS_OMM_VERS = 2.0
CREATION_DATE  = 
ORIGINATOR     = 

OBJECT_NAME    = SL-3 R/B
OBJECT_ID      = 1982-013B
CENTER_NAME    = EARTH
REF_FRAME      = TEME
TIME_SYSTEM    = UTC
MEAN_ELEMENT_THEORY = SGP/SGP4

EPOCH          = 2025-11-29T03:46:05.212128
MEAN_MOTION    = 15.20895350
ECCENTRICITY   = .0023314
INCLINATION    = 81.1739
RA_OF_ASC_NODE = 278.5059
ARG_OF_PERICENTER = 154.5129
MEAN_ANOMALY   = 205.7258

EPHEMERIS_TYPE = 0
CLASSIFICATION_TYPE = U
NORAD_CAT_ID   = 13068
ELEMENT_SET_NO = 999
REV_AT_EPOCH   = 38906
BSTAR          = .21733E-3
MEAN_MOTION_DOT = .4864E-4
MEAN_MOTION_DDOT = 0

CCSDS_OMM_VERS = 2.0
CREATION_DATE  = 
ORIGINATOR     = 

OBJECT_NAME    = SL-3 R/B
OBJECT_ID      = 1982-039B
CENTER_NAME    = EARTH
REF_FRAME      = TEME
TIME_SYSTEM    = UTC
MEAN_ELEMENT_THEORY = SGP/SGP4

EPOCH          = 2025-11-29T02:47:28.550688
MEAN_MOTION    = 15.09400223
ECCENTRICITY   = .0030729
INCLINATION    = 81.1746
RA_OF_ASC_NODE = 331.7675
ARG_OF_PERICENTER = 298.1514
MEAN_ANOMALY   = 61.6606

EPHEMERIS_TYPE = 0
CLASSIFICATION_TYPE = U
NORAD_CAT_ID   = 13154
ELEMENT_SET_NO = 999
REV_AT_EPOCH   = 36646
BSTAR          = .19702E-3
MEAN_MOTION_DOT = .3205E-4
MEAN_MOTION_DDOT = 0

